CCSDS_OMM_VERS = 2.0
CREATION_DATE  = 
ORIGINATOR     = 

OBJECT_NAME    = STARLINK-34542
OBJECT_ID      = 2025-224J
CENTER_NAME    = EARTH
REF_FRAME      = TEME
TIME_SYSTEM    = UTC
MEAN_ELEMENT_THEORY = SGP/SGP4

EPOCH          = 2025-11-02T03:48:45.580896
MEAN_MOTION    = 15.49333534
ECCENTRICITY   = .00014064
INCLINATION    = 53.1601
RA_OF_ASC_NODE = 245.5044
ARG_OF_PERICENTER = 77.6665
MEAN_ANOMALY   = 282.4502

EPHEMERIS_TYPE = 0
CLASSIFICATION_TYPE = U
NORAD_CAT_ID   = 65890
ELEMENT_SET_NO = 999
REV_AT_EPOCH   = 532
BSTAR          = .12349365E-2
MEAN_MOTION_DOT = .68902E-3
MEAN_MOTION_DDOT = 0

CCSDS_OMM_VERS = 2.0
CREATION_DATE  = 
ORIGINATOR     = 

OBJECT_NAME    = STARLINK-34791
OBJECT_ID      = 2025-224K
CENTER_NAME    = EARTH
REF_FRAME      = TEME
TIME_SYSTEM    = UTC
MEAN_ELEMENT_THEORY = SGP/SGP4

EPOCH          = 2025-11-02T03:17:17.729664
MEAN_MOTION    = 15.49336994
ECCENTRICITY   = .00013158
INCLINATION    = 53.1596
RA_OF_ASC_NODE = 245.3544
ARG_OF_PERICENTER = 111.4948
MEAN_ANOMALY   = 248.6202

EPHEMERIS_TYPE = 0
CLASSIFICATION_TYPE = U
NORAD_CAT_ID   = 65891
ELEMENT_SET_NO = 999
REV_AT_EPOCH   = 532
BSTAR          = .12625007E-2
MEAN_MOTION_DOT = .70473E-3
MEAN_MOTION_DDOT = 0

CCSDS_OMM_VERS = 2.0
CREATION_DATE  = 
ORIGINATOR     = 

OBJECT_NAME    = STARLINK-34853
OBJECT_ID      = 2025-224L
CENTER_NAME    = EARTH
REF_FRAME      = TEME
TIME_SYSTEM    = UTC
MEAN_ELEMENT_THEORY = SGP/SGP4

EPOCH          = 2025-11-02T12:00:02.000160
MEAN_MOTION    = 15.49271207
ECCENTRICITY   = .000111
INCLINATION    = 53.1595
RA_OF_ASC_NODE = 243.8642
ARG_OF_PERICENTER = 94.8891
MEAN_ANOMALY   = 13.0277

EPHEMERIS_TYPE = 0
CLASSIFICATION_TYPE = U
NORAD_CAT_ID   = 65892
ELEMENT_SET_NO = 999
REV_AT_EPOCH   = 537
BSTAR          = .46566E-3
MEAN_MOTION_DOT = .255E-3
MEAN_MOTION_DDOT = 0

CCSDS_OMM_VERS = 2.0
CREATION_DATE  = 
ORIGINATOR     = 

OBJECT_NAME    = STARLINK-34921
OBJECT_ID      = 2025-224M
CENTER_NAME    = EARTH
REF_FRAME      = TEME
TIME_SYSTEM    = UTC
MEAN_ELEMENT_THEORY = SGP/SGP4

EPOCH          = 2025-11-01T22:37:08.451552
MEAN_MOTION    = 15.49322320
ECCENTRICITY   = .00016568
INCLINATION    = 53.1594
RA_OF_ASC_NODE = 246.2736
ARG_OF_PERICENTER = 101.4115
MEAN_ANOMALY   = 258.7080

EPHEMERIS_TYPE = 0
CLASSIFICATION_TYPE = U
NORAD_CAT_ID   = 65893
ELEMENT_SET_NO = 999
REV_AT_EPOCH   = 529
BSTAR          = .81954691E-3
MEAN_MOTION_DOT = .45419E-3
MEAN_MOTION_DDOT = 0

CCSDS_OMM_VERS = 2.0
CREATION_DATE  = 
ORIGINATOR     = 

OBJECT_NAME    = STARLINK-34672
OBJECT_ID      = 2025-224N
CENTER_NAME    = EARTH
REF_FRAME      = TEME
TIME_SYSTEM    = UTC
MEAN_ELEMENT_THEORY = SGP/SGP4

EPOCH          = 2025-11-02T12:00:02.000160
MEAN_MOTION    = 15.49341458
ECCENTRICITY   = .0001359
INCLINATION    = 53.1593
RA_OF_ASC_NODE = 243.6156
ARG_OF_PERICENTER = 93.6079
MEAN_ANOMALY   = 134.2976

EPHEMERIS_TYPE = 0
CLASSIFICATION_TYPE = U
NORAD_CAT_ID   = 65894
ELEMENT_SET_NO = 999
REV_AT_EPOCH   = 543
BSTAR          = -.17556E-2
MEAN_MOTION_DOT = -.96996E-3
MEAN_MOTION_DDOT = 0

CCSDS_OMM_VERS = 2.0
CREATION_DATE  = 
ORIGINATOR     = 

OBJECT_NAME    = STARLINK-34898
OBJECT_ID      = 2025-224P
CENTER_NAME    = EARTH
REF_FRAME      = TEME
TIME_SYSTEM    = UTC
MEAN_ELEMENT_THEORY = SGP/SGP4

EPOCH          = 2025-11-02T03:14:49.395552
MEAN_MOTION    = 15.49342662
ECCENTRICITY   = .00016108
INCLINATION    = 53.1597
RA_OF_ASC_NODE = 245.3425
ARG_OF_PERICENTER = 103.6262
MEAN_ANOMALY   = 256.4926

EPHEMERIS_TYPE = 0
CLASSIFICATION_TYPE = U
NORAD_CAT_ID   = 65895
ELEMENT_SET_NO = 999
REV_AT_EPOCH   = 532
BSTAR          = .13677299E-2
MEAN_MOTION_DOT = .76459E-3
MEAN_MOTION_DDOT = 0

CCSDS_OMM_VERS = 2.0
CREATION_DATE  = 
ORIGINATOR     = 

OBJECT_NAME    = STARLINK-34906
OBJECT_ID      = 2025-224Q
CENTER_NAME    = EARTH
REF_FRAME      = TEME
TIME_SYSTEM    = UTC
MEAN_ELEMENT_THEORY = SGP/SGP4

EPOCH          = 2025-11-01T22:36:38.636640
MEAN_MOTION    = 15.49329970
ECCENTRICITY   = .00010134
INCLINATION    = 53.1592
RA_OF_ASC_NODE = 246.2700
ARG_OF_PERICENTER = 121.1500
MEAN_ANOMALY   = 238.9609

EPHEMERIS_TYPE = 0
CLASSIFICATION_TYPE = U
NORAD_CAT_ID   = 65896
ELEMENT_SET_NO = 999
REV_AT_EPOCH   = 529
BSTAR          = .14923652E-2
MEAN_MOTION_DOT = .83504E-3
MEAN_MOTION_DDOT = 0

CCSDS_OMM_VERS = 2.0
CREATION_DATE  = 
ORIGINATOR     = 

OBJECT_NAME    = STARLINK-34934
OBJECT_ID      = 2025-224R
CENTER_NAME    = EARTH
REF_FRAME      = TEME
TIME_SYSTEM    = UTC
MEAN_ELEMENT_THEORY = SGP/SGP4

EPOCH          = 2025-11-02T03:13:50.193408
MEAN_MOTION    = 15.49337845
ECCENTRICITY   = .0000776
INCLINATION    = 53.1593
RA_OF_ASC_NODE = 245.3380
ARG_OF_PERICENTER = 94.4390
MEAN_ANOMALY   = 265.6708

EPHEMERIS_TYPE = 0
CLASSIFICATION_TYPE = U
NORAD_CAT_ID   = 65897
ELEMENT_SET_NO = 999
REV_AT_EPOCH   = 527
BSTAR          = .18067017E-2
MEAN_MOTION_DOT = .10145E-2
MEAN_MOTION_DDOT = 0

CCSDS_OMM_VERS = 2.0
CREATION_DATE  = 
ORIGINATOR     = 

OBJECT_NAME    = STARLINK-34936
OBJECT_ID      = 2025-224S
CENTER_NAME    = EARTH
REF_FRAME      = TEME
TIME_SYSTEM    = UTC
MEAN_ELEMENT_THEORY = SGP/SGP4

EPOCH          = 2025-11-02T00:08:32.927424
MEAN_MOTION    = 15.49326504
ECCENTRICITY   = .0001451
INCLINATION    = 53.1595
RA_OF_ASC_NODE = 245.9583
ARG_OF_PERICENTER = 94.3676
MEAN_ANOMALY   = 265.7499

EPHEMERIS_TYPE = 0
CLASSIFICATION_TYPE = U
NORAD_CAT_ID   = 65898
ELEMENT_SET_NO = 999
REV_AT_EPOCH   = 530
BSTAR          = .13334688E-2
MEAN_MOTION_DOT = .7447E-3
MEAN_MOTION_DDOT = 0

CCSDS_OMM_VERS = 2.0
CREATION_DATE  = 
ORIGINATOR     = 

OBJECT_NAME    = STARLINK-35272
OBJECT_ID      = 2025-224T
CENTER_NAME    = EARTH
REF_FRAME      = TEME
TIME_SYSTEM    = UTC
MEAN_ELEMENT_THEORY = SGP/SGP4

EPOCH          = 2025-11-02T12:00:02.000160
MEAN_MOTION    = 15.49272973
ECCENTRICITY   = .0001408
INCLINATION    = 53.1594
RA_OF_ASC_NODE = 243.5860
ARG_OF_PERICENTER = 75.7296
MEAN_ANOMALY   = 165.6221

EPHEMERIS_TYPE = 0
CLASSIFICATION_TYPE = U
NORAD_CAT_ID   = 65899
ELEMENT_SET_NO = 999
REV_AT_EPOCH   = 542
BSTAR          = .32939E-3
MEAN_MOTION_DOT = .1789E-3
MEAN_MOTION_DDOT = 0

CCSDS_OMM_VERS = 2.0
CREATION_DATE  = 
ORIGINATOR     = 

OBJECT_NAME    = STARLINK-35264
OBJECT_ID      = 2025-224U
CENTER_NAME    = EARTH
REF_FRAME      = TEME
TIME_SYSTEM    = UTC
MEAN_ELEMENT_THEORY = SGP/SGP4

EPOCH          = 2025-11-02T12:00:02.000160
MEAN_MOTION    = 15.49272943
ECCENTRICITY   = .0001134
INCLINATION    = 53.1595
RA_OF_ASC_NODE = 243.5821
ARG_OF_PERICENTER = 71.9917
MEAN_ANOMALY   = 171.2727

EPHEMERIS_TYPE = 0
CLASSIFICATION_TYPE = U
NORAD_CAT_ID   = 65900
ELEMENT_SET_NO = 999
REV_AT_EPOCH   = 542
BSTAR          = .40097E-3
MEAN_MOTION_DOT = .21886E-3
MEAN_MOTION_DDOT = 0

CCSDS_OMM_VERS = 2.0
CREATION_DATE  = 
ORIGINATOR     = 

OBJECT_NAME    = STARLINK-35249
OBJECT_ID      = 2025-224V
CENTER_NAME    = EARTH
REF_FRAME      = TEME
TIME_SYSTEM    = UTC
MEAN_ELEMENT_THEORY = SGP/SGP4

EPOCH          = 2025-11-02T12:00:02.000160
MEAN_MOTION    = 15.49272728
ECCENTRICITY   = .0001206
INCLINATION    = 53.1593
RA_OF_ASC_NODE = 243.5789
ARG_OF_PERICENTER = 88.8711
MEAN_ANOMALY   = 156.3122

EPHEMERIS_TYPE = 0
CLASSIFICATION_TYPE = U
NORAD_CAT_ID   = 65901
ELEMENT_SET_NO = 999
REV_AT_EPOCH   = 541
BSTAR          = .36436E-3
MEAN_MOTION_DOT = .19842E-3
MEAN_MOTION_DDOT = 0

