STARLINK-34542          
1 65890U 25224J   25306.15886089  .00068902  00000+0  12349-2 0  9999
2 65890  53.1601 245.5044 0001406  77.6665 282.4502 15.49333534  5321
STARLINK-34791          
1 65891U 25224K   25306.13701076  .00070473  00000+0  12625-2 0  9993
2 65891  53.1596 245.3544 0001315 111.4948 248.6202 15.49336994  5322
STARLINK-34853          
1 65892U 25224L   25306.50002315  .00025500  00000+0  46566-3 0  9998
2 65892  53.1595 243.8642 0001110  94.8891  13.0277 15.49271207  5374
STARLINK-34921          
1 65893U 25224M   25305.94245893  .00045419  00000+0  81955-3 0  9998
2 65893  53.1594 246.2736 0001656 101.4115 258.7080 15.49322320  5298
STARLINK-34672          
1 65894U 25224N   25306.50002315 -.00096996  00000+0 -17556-2 0  9995
2 65894  53.1593 243.6156 0001359  93.6079 134.2976 15.49341458  5437
STARLINK-34898          
1 65895U 25224P   25306.13529393  .00076459  00000+0  13677-2 0  9995
2 65895  53.1597 245.3425 0001610 103.6262 256.4926 15.49342662  5324
STARLINK-34906          
1 65896U 25224Q   25305.94211385  .00083504  00000+0  14924-2 0  9998
2 65896  53.1592 246.2700 0001013 121.1500 238.9609 15.49329970  5299
STARLINK-34934          
1 65897U 25224R   25306.13460872  .00101450  00000+0  18067-2 0  9991
2 65897  53.1593 245.3380 0000776  94.4390 265.6708 15.49337845  5274
STARLINK-34936          
1 65898U 25224S   25306.00593666  .00074470  00000+0  13335-2 0  9990
2 65898  53.1595 245.9583 0001451  94.3676 265.7499 15.49326504  5307
STARLINK-35272          
1 65899U 25224T   25306.50002315  .00017890  00000+0  32939-3 0  9997
2 65899  53.1594 243.5860 0001408  75.7296 165.6221 15.49272973  5426
STARLINK-35264          
1 65900U 25224U   25306.50002315  .00021886  00000+0  40097-3 0  9994
2 65900  53.1595 243.5821 0001134  71.9917 171.2727 15.49272943  5422
STARLINK-35249          
1 65901U 25224V   25306.50002315  .00019842  00000+0  36436-3 0  9996
2 65901  53.1593 243.5789 0001206  88.8711 156.3122 15.49272728  5416
